NORAD_CAT_ID,OBJECT_NAME,OBJECT_TYPE,EPOCH,MEAN_MOTION,ECCENTRICITY,INCLINATION,RA_OF_ASC_NODE,ARG_OF_PERICENTER,MEAN_ANOMALY,BSTAR,MEAN_MOTION_DOT,MEAN_MOTION_DDOT,TLE_LINE0,TLE_LINE1,TLE_LINE2,SEMIMAJOR_AXIS,PERIOD,APOGEE,PERIGEE,DECAYED
52290.0,STARLINK-3772,PAYLOAD,2022-06-03 12:21:19,15.73207108,0.0004414,53.2149,162.8398,7.9865,352.1225,-5.9311e-06,-1.459e-05,0.0,0 STARLINK-3772,1 52290U 22041AF  22154.51480583 -.00001459  00000-0 -59311-5 0  9990,2 52290  53.2149 162.8398 0004414   7.9865 352.1225 15.73207108  6751,6727.875,91.533,352.71,346.77,0.0
52290.0,STARLINK-3772,PAYLOAD,2022-06-04 12:46:59,15.71658087,0.0004407,53.2145,157.8184,136.489,223.6477,-0.0014583,-0.00188176,0.0,0 STARLINK-3772,1 52290U 22041AF  22155.53262939 -.00188176  00000-0 -14583-2 0  9997,2 52290  53.2145 157.8184 0004407 136.4890 223.6477 15.71658087  8120,6732.295,91.623,357.12699999999984,351.1930000000001,0.0
52290.0,STARLINK-3772,PAYLOAD,2022-06-05 22:00:00,15.7049273,0.0003741,53.2173,150.9684,327.7659,314.4788,-0.0060925,-0.00702615,0.0,0 STARLINK-3772,1 52290U 22041AF  22156.91667824 -.00702615  00000-0 -60925-2 0  9993,2 52290  53.2173 150.9684 0003741 327.7659 314.4788 15.70492730  8346,6735.625,91.691,360.01,354.97,0.0
52290.0,STARLINK-3772,PAYLOAD,2022-06-06 14:00:01,15.69490989,0.0002411,53.2173,147.6859,273.5472,178.8267,-0.0066586,-0.00733193,0.0,0 STARLINK-3772,1 52290U 22041AF  22157.58334491 -.00733193  00000-0 -66586-2 0  9992,2 52290  53.2173 147.6859 0002411 273.5472 178.8267 15.69490989  1302,6738.491,91.749,361.98,358.731,0.0
52290.0,STARLINK-3772,PAYLOAD,2022-06-06 22:00:00,15.68976407,8.690000000000001e-05,53.2174,146.0442,333.8397,202.6863,-0.0067331999999999,-0.00725952,0.0,0 STARLINK-3772,1 52290U 22041AF  22157.91667824 -.00725952  00000-0 -67332-2 0  9992,2 52290  53.2174 146.0442 0000869 333.8397 202.6863 15.68976407  8493,6739.964,91.78,362.415,361.24300000000005,0.0
52290.0,STARLINK-3772,PAYLOAD,2022-06-07 14:00:01,15.67952452,0.0001076,53.2173,142.7691,70.494,272.492,-0.0069417,-0.00718142,0.0,0 STARLINK-3772,1 52290U 22041AF  22158.58334491 -.00718142  00000-0 -69417-2 0  9996,2 52290  53.2173 142.7691 0001076  70.4940 272.4920 15.67952452  1305,6742.898,91.84,365.48800000000006,364.037,0.0
52290.0,STARLINK-3772,PAYLOAD,2022-06-07 22:00:00,15.67441199,0.0001159,53.2173,141.1312,61.1117,4.1862,-0.0070639,-0.00715824,0.0,0 STARLINK-3772,1 52290U 22041AF  22158.91667824 -.00715824  00000-0 -70639-2 0  9994,2 52290  53.2173 141.1312 0001159  61.1117   4.1862 15.67441199  1309,6744.364000000001,91.869,367.011,365.447,0.0
52290.0,STARLINK-3772,PAYLOAD,2022-06-08 06:00:02,15.66932178,0.0001531999999999,53.2172,139.498,45.7439,101.3158,-0.0072282,-0.00717339,0.0,0 STARLINK-3772,1 52290U 22041AF  22159.25002315 -.00717339  00000-0 -72282-2 0  9999,2 52290  53.2172 139.4980 0001532  45.7439 101.3158 15.66932178  8709,6745.825,91.899,368.723,366.656,0.0
52290.0,STARLINK-3772,PAYLOAD,2022-06-08 14:00:01,15.66423476,0.0001211,53.2174,137.8632,77.9508,150.129,-0.0074068,-0.00719717,0.0,0 STARLINK-3772,1 52290U 22041AF  22159.58334491 -.00719717  00000-0 -74068-2 0  9994,2 52290  53.2174 137.8632 0001211  77.9508 150.1290 15.66423476  1309,6747.285,91.929,369.967,368.333,0.0
52290.0,STARLINK-3772,PAYLOAD,2022-06-08 22:00:01,15.65910806,0.0001167,53.2177,136.2292,68.025,240.5937,-0.0074991,-0.00714181,0.0,0 STARLINK-3772,1 52290U 22041AF  22159.91668981 -.00714181  00000-0 -74991-2 0  9990,2 52290  53.2177 136.2292 0001167  68.0250 240.5937 15.65910806  1301,6748.7580000000025,91.959,371.41,369.835,0.0
52290.0,STARLINK-3772,PAYLOAD,2022-06-09 06:00:00,15.6540385,0.0001281,53.2176,134.6,50.3702,338.0407,-0.0077182,-0.007197,0.0,0 STARLINK-3772,1 52290U 22041AF  22160.25001157 -.00719700  00000-0 -77182-2 0  9992,2 52290  53.2176 134.6000 0001281  50.3702 338.0407 15.65403850  8861,6750.215,91.989,372.944,371.215,0.0
52290.0,STARLINK-3772,PAYLOAD,2022-06-09 14:00:01,15.64892316,0.0001207,53.2172,132.9687,60.087,47.5719,-0.0078446,-0.00716845,0.0,0 STARLINK-3772,1 52290U 22041AF  22160.58334491 -.00716845  00000-0 -78446-2 0  9999,2 52290  53.2172 132.9687 0001207  60.0870  47.5719 15.64892316  1309,6751.685,92.019,374.365,372.736,0.0
52290.0,STARLINK-3772,PAYLOAD,2022-06-09 22:00:00,15.6438212,0.000131,53.2174,131.3386,66.8386,119.4546,-0.0079853,-0.00715136,0.0,0 STARLINK-3772,1 52290U 22041AF  22160.91667824 -.00715136  00000-0 -79853-2 0  9990,2 52290  53.2174 131.3386 0001310  66.8386 119.4546 15.64382120  1305,6753.153,92.049,375.903,374.134,0.0
52290.0,STARLINK-3772,PAYLOAD,2022-06-10 06:00:02,15.638725099999998,0.0001345,53.2174,129.7125,60.8678,203.5107,-0.0081701,-0.00716842,0.0,0 STARLINK-3772,1 52290U 22041AF  22161.25002315 -.00716842  00000-0 -81701-2 0  9996,2 52290  53.2174 129.7125 0001345  60.8678 203.5107 15.63872510  9024,6754.62,92.079,377.394,375.577,0.0
52290.0,STARLINK-3772,PAYLOAD,2022-06-10 14:00:01,15.63363233,0.0001058,53.2174,128.0849,77.2639,264.4585,-0.0083518999999999,-0.0071798,0.0,0 STARLINK-3772,1 52290U 22041AF  22161.58334491 -.00717980  00000-0 -83519-2 0  9998,2 52290  53.2174 128.0849 0001058  77.2639 264.4585 15.63363233  1305,6756.087,92.109,378.667,377.237,0.0
52290.0,STARLINK-3772,PAYLOAD,2022-06-10 22:00:00,15.62850902,0.0001156,53.2175,126.4587,63.7714,354.7478,-0.0084655,-0.00713581,0.0,0 STARLINK-3772,1 52290U 22041AF  22161.91667824 -.00713581  00000-0 -84655-2 0  9999,2 52290  53.2175 126.4587 0001156  63.7714 354.7478 15.62850902  1307,6757.564,92.139,380.21,378.647,0.0
52290.0,STARLINK-3772,PAYLOAD,2022-06-11 06:00:00,15.62342037,0.0001463,53.2175,124.8367,51.0325,83.6678,-0.0086551,-0.00715045,0.0,0 STARLINK-3772,1 52290U 22041AF  22162.25001157 -.00715045  00000-0 -86551-2 0  9992,2 52290  53.2175 124.8367 0001463  51.0325  83.6678 15.62342037  9172,6759.031,92.169,381.885,379.907,0.0
52290.0,STARLINK-3772,PAYLOAD,2022-06-11 22:00:00,15.6132217,0.0001217,53.2177,121.5903,73.0016,212.2272,-0.0090007,-0.00714541,0.0,0 STARLINK-3772,1 52290U 22041AF  22162.91667824 -.00714541  00000-0 -90007-2 0  9995,2 52290  53.2177 121.5903 0001217  73.0016 212.2272 15.61322170  1304,6761.974,92.23,384.662,383.016,0.0
52290.0,STARLINK-3772,PAYLOAD,2022-06-12 06:00:02,15.60813268,0.0001247,53.2175,119.972,54.4861,305.1508,-0.0092184,-0.00717266,0.0,0 STARLINK-3772,1 52290U 22041AF  22163.25002315 -.00717266  00000-0 -92184-2 0  9996,2 52290  53.2175 119.9720 0001247  54.4861 305.1508 15.60813268  9331,6763.444,92.26,386.152,384.465,0.0
52290.0,STARLINK-3772,PAYLOAD,2022-06-12 14:00:01,15.60302387,0.0001095,53.2173,118.3515,67.9942,5.3107,-0.0093786,-0.00715578,0.0,0 STARLINK-3772,1 52290U 22041AF  22163.58334491 -.00715578  00000-0 -93786-2 0  9998,2 52290  53.2173 118.3515 0001095  67.9942   5.3107 15.60302387  1302,6764.92,92.29,387.526,386.044,0.0
52290.0,STARLINK-3772,PAYLOAD,2022-06-12 22:00:00,15.59790943,0.0001274999999999,53.2174,116.733,68.4887,77.9358,-0.0095224,-0.00712676,0.0,0 STARLINK-3772,1 52290U 22041AF  22163.91667824 -.00712676  00000-0 -95224-2 0  9999,2 52290  53.2174 116.7330 0001275  68.4887  77.9358 15.59790943  1304,6766.399,92.32,389.126,387.401,0.0
52290.0,STARLINK-3772,PAYLOAD,2022-06-13 14:00:01,15.58774411,0.0001153,53.2175,113.5013,77.6914,213.1313,-0.0099931,-0.00718787,0.0,0 STARLINK-3772,1 52290U 22041AF  22164.58334491 -.00718787  00000-0 -99931-2 0  9992,2 52290  53.2175 113.5013 0001153  77.6914 213.1313 15.58774411  9546,6769.34,92.38,391.986,390.425,0.0
52290.0,STARLINK-3772,PAYLOAD,2022-06-13 22:00:00,15.58262752,0.0001123,53.2176,111.8869,68.94800000000001,293.1558,-0.010134,-0.00715191,0.0,0 STARLINK-3772,1 52290U 22041AF  22164.91667824 -.00715191  00000-0 -10134-1 0  9991,2 52290  53.2176 111.8869 0001123  68.9480 293.1558 15.58262752  1300,6770.821999999999,92.411,393.447,391.926,0.0
52290.0,STARLINK-3772,PAYLOAD,2022-06-14 14:00:01,15.57241806,0.0001308,53.2174,108.6623,58.5582,84.2689,-0.010507,-0.00713616,0.0,0 STARLINK-3772,1 52290U 22041AF  22165.58334491 -.00713616  00000-0 -10507-1 0  9990,2 52290  53.2174 108.6623 0001308  58.5582  84.2689 15.57241806  1303,6773.781,92.471,396.532,394.76,0.0
52290.0,STARLINK-3772,PAYLOAD,2022-06-14 22:00:00,15.56731175,0.000133,53.2176,107.0518,69.6037,142.6656,-0.010688,-0.0071223999999999,0.0,0 STARLINK-3772,1 52290U 22041AF  22165.91667824 -.00712240  00000-0 -10688-1 0  9998,2 52290  53.2176 107.0518 0001330  69.6037 142.6656 15.56731175  9756,6775.262,92.502,398.028,396.226,0.0
52290.0,STARLINK-3772,PAYLOAD,2022-06-15 14:00:01,15.55712765,0.0001088,53.2174,103.8345,74.0011,275.314,-0.011154,-0.00715228,0.0,0 STARLINK-3772,1 52290U 22041AF  22166.58334491 -.00715228  00000-0 -11154-1 0  9991,2 52290  53.2174 103.8345 0001088  74.0011 275.3140 15.55712765  1306,6778.219,92.562,400.821,399.346,0.0
52290.0,STARLINK-3772,PAYLOAD,2022-06-15 22:00:00,15.55203045,0.0001146,53.2175,102.2279,65.6576,351.2609,-0.011367,-0.00715229,0.0,0 STARLINK-3772,1 52290U 22041AF  22166.91667824 -.00715229  00000-0 -11367-1 0  9994,2 52290  53.2175 102.2279 0001146  65.6576 351.2609 15.55203045  9907,6779.699000000001,92.592,402.341,400.788,0.0
52290.0,STARLINK-3772,PAYLOAD,2022-06-16 02:00:01,15.54946624,0.0001279,53.2172,101.4262,65.7173,204.773,-0.011432,-0.00712771,0.0,0 STARLINK-3772,1 52290U 22041AF  22167.08334491 -.00712771  00000-0 -11432-1 0  9996,2 52290  53.2172 101.4262 0001279  65.7173 204.7730 15.54946624  1307,6780.445,92.608,403.177,401.443,0.0
52290.0,STARLINK-3772,PAYLOAD,2022-06-19 14:00:01,15.49883791,0.0001209,53.2174,84.6339,70.7844,329.5524,4.897600000000002e-05,2.329e-05,0.0,0 STARLINK-3772,1 52290U 22041AF  22170.58334491  .00002329  00000-0  48976-4 0  9990,2 52290  53.2174  84.6339 0001209  70.7844 329.5524 15.49883791  1306,6795.203,92.91,417.889,416.246,0.0
